{"fetched_at":"2026-03-29T16:36:15Z","count":15609,"tles":[{"name":"STARLINK-32823","line1":"1 62823U 25018T   26087.77439248  .00035642  00000+0  12093-2 0  9990","line2":"2 62823  53.1589 220.7116 0001043  86.8456 273.2664 15.30212897 66109","category":"Starlink"}]}