{
  "norad_id": 62823,
  "name": "STARLINK-32823",
  "history": [
    {
      "epoch": "2026-03-28T18:35:07.510272Z",
      "apogee_km": 475.89184190890865,
      "perigee_km": 474.4612812360656,
      "latitude_deg": -9.609650945894129e-06,
      "longitude_deg": 115.74028810501342,
      "height_km": 476.03547477543805,
      "semi_major_axis_km": 6853.313561572487,
      "eccentricity": 0.00010437,
      "inclination_deg": 53.1589,
      "raan_deg": 220.7116,
      "arg_perigee_deg": 86.8456,
      "mean_anomaly_deg": 273.2664,
      "mean_motion_rev_day": 15.30212897
    }
  ]
}